[{"OBJECT_NAME":"OBJECT BD","OBJECT_ID":"2025-313BD","EPOCH":"2026-03-09T15:06:44.992224","MEAN_MOTION":15.3000236,"ECCENTRICITY":0.00072867,"INCLINATION":97.397,"RA_OF_ASC_NODE":145.285,"ARG_OF_PERICENTER":333.4514,"MEAN_ANOMALY":26.6352,"EPHEMERIS_TYPE":0,"CLASSIFICATION_TYPE":"U","NORAD_CAT_ID":67299,"ELEMENT_SET_NO":999,"REV_AT_EPOCH":1083,"BSTAR":0.0027633805,"MEAN_MOTION_DOT":0.0008101,"MEAN_MOTION_DDOT":0},{"OBJECT_NAME":"STARLINK-36558","OBJECT_ID":"2026-012G","EPOCH":"2026-03-09T23:15:36.018432","MEAN_MOTION":15.27601336,"ECCENTRICITY":0.00010629,"INCLINATION":42.9999,"RA_OF_ASC_NODE":312.9117,"ARG_OF_PERICENTER":155.2454,"MEAN_ANOMALY":204.8449,"EPHEMERIS_TYPE":0,"CLASSIFICATION_TYPE":"U","NORAD_CAT_ID":67499,"ELEMENT_SET_NO":999,"REV_AT_EPOCH":780,"BSTAR":0.001148142,"MEAN_MOTION_DOT":0.00031488,"MEAN_MOTION_DDOT":0}]
